OBJECT_NAME,OBJECT_ID,EPOCH,MEAN_MOTION,ECCENTRICITY,INCLINATION,RA_OF_ASC_NODE,ARG_OF_PERICENTER,MEAN_ANOMALY,EPHEMERIS_TYPE,CLASSIFICATION_TYPE,NORAD_CAT_ID,ELEMENT_SET_NO,REV_AT_EPOCH,BSTAR,MEAN_MOTION_DOT,MEAN_MOTION_DDOT
BEIDOU-2 G8 (C01),2019-027A,2026-06-07T05:33:31.047840,1.00274914,.00106177,1.6323,74.4901,284.3653,124.6708,0,U,44231,999,2598,0,-.232E-5,0
COSMOS 2534 (758),2019-030A,2026-06-07T05:50:36.054240,2.13102468,.00132292,64.3678,192.9512,275.1737,155.4482,0,U,44299,999,5471,0,.85E-6,0
BEIDOU-3 IGSO-2 (C39),2019-035A,2026-06-06T13:55:17.483808,1.00270343,.00398392,55.2446,158.9549,216.2059,208.5586,0,U,44337,999,2556,0,-.62E-6,0
GPS BIII-2  (PRN 18),2019-056A,2026-06-06T04:10:38.785728,2.00569824,.00614516,55.6435,331.5809,197.4701,157.7136,0,U,44506,999,4984,0,-.63E-6,0
BEIDOU-3 M23 (C45),2019-061B,2026-06-07T06:17:45.644640,1.86227660,.00055038,54.3944,183.0310,338.9956,81.5590,0,U,44543,999,4561,0,.96E-6,0
EUTELSAT 5 WEST B (EGNOS/PRN 121),2019-067A,2026-06-07T04:50:50.203680,1.00272067,.00032397,0.0639,343.5567,93.0627,246.7092,0,U,44624,999,2433,0,-.28E-6,0
BEIDOU-3 IGSO-3 (C40),2019-073A,2026-05-16T19:27:04.075776,1.00246251,.0042953,54.8566,281.2355,189.4588,170.3676,0,U,44709,999,2414,0,-.217E-5,0
BEIDOU-3 M22 (C44),2019-078A,2026-06-05T19:20:44.288160,1.86227665,.00066301,53.9467,300.2280,49.5810,310.4674,0,U,44793,999,4443,0,-.55E-6,0
BEIDOU-3 M21 (C43),2019-078B,2026-06-06T11:35:29.344128,1.86228140,.00045259,53.9193,300.1657,47.8129,312.2176,0,U,44794,999,4445,0,-.55E-6,0
COSMOS 2544 (759),2019-088A,2026-06-05T07:08:53.172960,2.13102169,.00136933,65.5596,74.1271,259.9573,99.9093,0,U,44850,999,5046,0,-.6E-7,0
BEIDOU-3 M19 (C41),2019-090A,2026-06-06T10:56:36.782592,1.86231867,.00181153,56.5493,63.1460,297.5322,241.6390,0,U,44864,999,4403,0,-.38E-6,0
BEIDOU-3 M20 (C42),2019-090B,2026-06-06T07:44:50.540352,1.86231730,.00161406,56.5509,63.1852,310.9731,228.5055,0,U,44865,999,4401,0,-.38E-6,0
BEIDOU-3 G2 (C60),2020-017A,2026-06-07T03:32:29.781888,1.00274136,.00026243,2.8436,47.1881,26.3860,315.1490,0,U,45344,999,2315,0,-.127E-5,0
COSMOS 2545 (760),2020-018A,2026-06-05T11:49:45.715872,2.13102783,.0007849,64.3625,312.8297,231.7893,128.1339,0,U,45358,999,4841,0,-.33E-6,0
BEIDOU-3 G3 (C61),2020-040A,2026-06-07T03:41:38.911776,1.00272966,.00029919,2.4222,67.4247,337.4451,16.6850,0,U,45807,999,2196,0,-.34E-5,0
GPS BIII-3  (PRN 23),2020-041A,2026-06-06T12:23:56.548608,2.00559086,.00634877,56.6625,29.3580,204.6420,336.7508,0,U,45854,999,4382,0,-.68E-6,0
GALAXY 30 (WAAS/PRN 135),2020-056C,2026-06-07T05:59:20.097888,1.00272621,.00022572,0.0177,355.3020,79.3374,145.8433,0,U,46114,999,2119,0,.51E-6,0
COSMOS 2547 (705K),2020-075A,2026-06-05T05:06:49.888224,2.13100365,.0009155,64.5987,192.8757,239.4130,120.5675,0,U,46805,999,4365,0,.69E-6,0
GPS BIII-4  (PRN 14),2020-078A,2026-06-07T06:33:26.572608,2.00564936,.00731279,53.9811,211.1810,206.9373,136.7497,0,U,46826,999,4130,0,.49E-6,0
GPS BIII-5  (PRN 11),2021-054A,2026-06-07T06:49:20.922816,2.00569773,.00250785,55.1799,332.8582,228.6121,309.2145,0,U,48859,999,3655,0,-.62E-6,0
QZS-1R (QZSS/PRN 196),2021-096A,2026-06-06T15:47:00.831264,1.00259679,.0754231,37.4401,79.7406,271.5748,275.1259,0,U,49336,999,1690,0,-.234E-5,0
GSAT0223 (GALILEO 27),2021-116A,2026-06-05T20:12:21.690144,1.70476196,.0001178,57.1638,341.9819,182.7956,174.1817,0,U,49809,999,2798,0,-.66E-6,0
GSAT0224 (GALILEO 28),2021-116B,2026-06-06T20:02:21.618816,1.70476178,.00009049,57.1648,341.9539,146.6403,212.4208,0,U,49810,999,2802,0,-.64E-6,0
COSMOS 2557 (706K),2022-075A,2026-06-04T21:47:47.138208,2.13102273,.00101568,64.3043,314.9179,276.0496,83.8276,0,U,52984,999,3045,0,-.37E-6,0
COSMOS 2559 (707K),2022-130A,2026-06-06T03:15:13.547808,2.13101704,.00123738,64.2805,314.9582,177.2217,182.7817,0,U,54031,999,2845,0,-.32E-6,0
COSMOS 2564 (761),2022-161A,2026-06-06T10:45:20.053728,2.13102053,.00120549,64.7407,193.0683,224.2405,135.7317,0,U,54377,999,2740,0,.77E-6,0
GPS BIII-6  (PRN 28),2023-009A,2026-06-06T17:43:21.673056,2.00572244,.0006187,55.1217,148.9298,317.8929,223.9645,0,U,55268,999,2503,0,.96E-6,0
BEIDOU-3 G4 (C62),2023-066A,2026-06-07T06:42:56.121408,1.00267392,.00044161,0.4989,328.8271,169.3834,358.1978,0,U,56564,999,1129,0,-.268E-5,0
NVS-01 (IRNSS-1J),2023-076A,2026-06-07T05:29:16.454688,1.00270439,.00029349,2.1905,244.8056,41.3932,181.3514,0,U,56759,999,1101,0,-.321E-5,0
COSMOS 2569 (703K),2023-114A,2026-06-06T22:18:50.823360,2.13103762,.00110672,65.2965,72.9664,296.7940,63.1169,0,U,57517,999,2204,0,-.1E-6,0
